NORAD_CAT_ID,OBJECT_NAME,OBJECT_TYPE,EPOCH,MEAN_MOTION,ECCENTRICITY,INCLINATION,RA_OF_ASC_NODE,ARG_OF_PERICENTER,MEAN_ANOMALY,BSTAR,MEAN_MOTION_DOT,MEAN_MOTION_DDOT,TLE_LINE0,TLE_LINE1,TLE_LINE2,SEMIMAJOR_AXIS,PERIOD,APOGEE,PERIGEE,DECAYED
52493.0,STARLINK-3883,PAYLOAD,2024-01-16 01:53:45,15.0884281,0.0001463,53.2177,326.8833,90.3246,269.7913,-5.3993e-06,-3.74e-06,0.0,0 STARLINK-3883,1 52493U 22049AU  24016.07899934 -.00000374  00000-0 -53993-5 0  9992,2 52493  53.2177 326.8833 0001463  90.3246 269.7913 15.08842810 94255,6917.872,95.437,540.749,538.725,0.0
52493.0,STARLINK-3883,PAYLOAD,2024-01-16 06:39:54,15.0884407,0.0001478,53.2174,325.9895,107.396,252.7194,1.1788e-05,-1e-06,0.0,0 STARLINK-3883,1 52493U 22049AU  24016.27771732 -.00000100  00000-0  11788-4 0  9990,2 52493  53.2174 325.9895 0001478 107.3960 252.7194 15.08844070 94127,6917.868,95.437,540.755,538.71,0.0
52493.0,STARLINK-3883,PAYLOAD,2024-01-16 19:23:00,15.08835973,0.0001493,53.2175,323.6098,106.735,253.3806,-3.246e-05,-8.04e-06,0.0,0 STARLINK-3883,1 52493U 22049AU  24016.80764250 -.00000804  00000-0 -32460-4 0  9998,2 52493  53.2175 323.6098 0001493 106.7350 253.3806 15.08835973 94209,6917.893,95.438,540.791,538.725,0.0
52493.0,STARLINK-3883,PAYLOAD,2024-01-17 01:44:32,15.08839548,0.0001498,53.2175,322.4207,105.6782,254.4375,3.988e-05,3.47e-06,0.0,0 STARLINK-3883,1 52493U 22049AU  24017.07260004  .00000347  00000-0  39880-4 0  9999,2 52493  53.2175 322.4207 0001498 105.6782 254.4375 15.08839548 94249,6917.882,95.438,540.783,538.71,0.0
52493.0,STARLINK-3883,PAYLOAD,2024-01-18 01:35:20,15.08837831,0.0001394,53.2166,317.9652,92.6546,267.4605,9.1421e-05,1.167e-05,0.0,0 STARLINK-3883,1 52493U 22049AU  24018.06620463  .00001167  00000-0  91421-4 0  9998,2 52493  53.2166 317.9652 0001394  92.6546 267.4605 15.08837831 94557,6917.887,95.438,540.716,538.788,0.0
52493.0,STARLINK-3883,PAYLOAD,2024-01-18 04:46:06,15.08841776,0.0001386,53.2167,317.3708,86.9195,273.1956,0.00015406,2.165e-05,0.0,0 STARLINK-3883,1 52493U 22049AU  24018.19868312  .00002165  00000-0  15406-3 0  9996,2 52493  53.2167 317.3708 0001386  86.9195 273.1956 15.08841776 94412,6917.875,95.437,540.699,538.781,0.0
52493.0,STARLINK-3883,PAYLOAD,2024-01-19 03:01:30,15.08843029,0.00017,53.2177,313.205,84.1762,275.9424,0.00011671,1.57e-05,0.0,0 STARLINK-3883,1 52493U 22049AU  24019.12604463  .00001570  00000-0  11671-3 0  9994,2 52493  53.2177 313.2050 0001700  84.1762 275.9424 15.08843029 94714,6917.871,95.437,540.912,538.56,0.0
52493.0,STARLINK-3883,PAYLOAD,2024-01-19 04:36:53,15.08845417,0.0001676,53.2178,312.9077,91.4471,268.6713,0.00015199,2.132e-05,0.0,0 STARLINK-3883,1 52493U 22049AU  24019.19228316  .00002132  00000-0  15199-3 0  9994,2 52493  53.2178 312.9077 0001676  91.4471 268.6713 15.08845417 94566,6917.864,95.437,540.888,538.569,0.0
52493.0,STARLINK-3883,PAYLOAD,2024-01-20 02:52:17,15.08846036,0.0001526,53.2176,308.744,87.9455,272.1711,0.00011015,1.466e-05,0.0,0 STARLINK-3883,1 52493U 22049AU  24020.11964257  .00001466  00000-0  11015-3 0  9991,2 52493  53.2176 308.7440 0001526  87.9455 272.1711 15.08846036 94709,6917.862,95.437,540.783,538.671,0.0
52493.0,STARLINK-3883,PAYLOAD,2024-01-20 18:46:10,15.0882484,0.0001745,53.2178,305.7727,78.8513,281.2675,-0.00018516,-3.232e-05,0.0,0 STARLINK-3883,1 52493U 22049AU  24020.78206091 -.00003232  00000-0 -18516-3 0  9997,2 52493  53.2178 305.7727 0001745  78.8513 281.2675 15.08824840 94960,6917.927,95.439,540.999,538.585,0.0
52493.0,STARLINK-3883,PAYLOAD,2024-01-20 21:56:57,15.08824023,0.0001392,53.2188,305.1778,73.7954,286.3191,-0.00011488,-2.115e-05,0.0,0 STARLINK-3883,1 52493U 22049AU  24020.91455002 -.00002115  00000-0 -11488-3 0  9990,2 52493  53.2188 305.1778 0001392  73.7954 286.3191 15.08824023 94829,6917.929,95.439,540.757,538.831,0.0
52493.0,STARLINK-3883,PAYLOAD,2024-01-21 01:07:43,15.08825772,0.0001478,53.2188,304.5816,77.4767,282.6391,-0.00010119,-1.897e-05,0.0,0 STARLINK-3883,1 52493U 22049AU  24021.04702967 -.00001897  00000-0 -10119-3 0  9996,2 52493  53.2188 304.5816 0001478  77.4767 282.6391 15.08825772 94848,6917.924,95.438,540.811,538.766,0.0
52493.0,STARLINK-3883,PAYLOAD,2024-01-21 21:47:42,15.08846357,0.0002021,53.2206,300.7177,56.0115,304.1069,0.00011639,1.565e-05,0.0,0 STARLINK-3883,1 52493U 22049AU  24021.90813218  .00001565  00000-0  11639-3 0  9991,2 52493  53.2206 300.7177 0002021  56.0115 304.1069 15.08846357 94970,6917.861,95.437,541.124,538.328,0.0
52493.0,STARLINK-3883,PAYLOAD,2024-01-22 00:58:27,15.0886774,0.0001376,53.2179,300.1204,87.4566,272.6583,0.00023278,3.421e-05,0.0,0 STARLINK-3883,1 52493U 22049AU  24022.04059304  .00003421  00000-0  23278-3 0  9990,2 52493  53.2179 300.1204 0001376  87.4566 272.6583 15.08867740 95154,6917.796,95.436,540.612,538.709,0.0
52493.0,STARLINK-3883,PAYLOAD,2024-01-22 21:38:29,15.08845584,0.0001258,53.2187,296.2534,102.9898,257.1234,0.00024451,3.606e-05,0.0,0 STARLINK-3883,1 52493U 22049AU  24022.90172489  .00003606  00000-0  24451-3 0  9994,2 52493  53.2187 296.2534 0001258 102.9898 257.1234 15.08845584 95124,6917.863,95.437,540.599,538.858,0.0
52493.0,STARLINK-3883,PAYLOAD,2024-01-23 00:49:14,15.08850352,0.0001463,53.2184,295.66,90.5135,269.6025,0.00030361,4.549e-05,0.0,0 STARLINK-3883,1 52493U 22049AU  24023.03420056  .00004549  00000-0  30361-3 0  9999,2 52493  53.2184 295.6600 0001463  90.5135 269.6025 15.08850352 95307,6917.849,95.437,540.726,538.702,0.0
52493.0,STARLINK-3883,PAYLOAD,2024-01-23 23:04:38,15.08856304,0.0001399,53.2178,291.4954,116.2045,243.9091,-0.00013749,-2.476e-05,0.0,0 STARLINK-3883,1 52493U 22049AU  24023.96155998 -.00002476  00000-0 -13749-3 0  9991,2 52493  53.2178 291.4954 0001399 116.2045 243.9091 15.08856304 95288,6917.831,95.437,540.663,538.728,0.0
52493.0,STARLINK-3883,PAYLOAD,2024-01-24 00:40:02,15.08854134,0.000124,53.2174,291.1992,104.5884,255.5246,-0.00014743,-2.634e-05,0.0,0 STARLINK-3883,1 52493U 22049AU  24024.02780152 -.00002634  00000-0 -14743-3 0  9996,2 52493  53.2174 291.1992 0001240 104.5884 255.5246 15.08854134 95458,6917.837,95.437,540.56,538.844,0.0
52493.0,STARLINK-3883,PAYLOAD,2024-01-24 22:55:26,15.08853058,0.0001341,53.2174,287.039,111.2735,248.8401,-0.00036026,-6.019e-05,0.0,0 STARLINK-3883,1 52493U 22049AU  24024.95517127 -.00006019  00000-0 -36026-3 0  9997,2 52493  53.2174 287.0390 0001341 111.2735 248.8401 15.08853058 95436,6917.84,95.437,540.633,538.778,0.0
52493.0,STARLINK-3883,PAYLOAD,2024-01-25 22:46:14,15.08828185,0.0001513,53.2177,282.5783,109.5781,250.5374,8.9052e-05,1.129e-05,0.0,0 STARLINK-3883,1 52493U 22049AU  24025.94877687  .00001129  00000-0  89052-4 0  9990,2 52493  53.2177 282.5783 0001513 109.5781 250.5374 15.08828185 95585,6917.917,95.438,540.828,538.735,0.0
52493.0,STARLINK-3883,PAYLOAD,2024-01-26 00:21:37,15.08830452,0.0001362,53.2174,282.278,89.8829,270.2319,9.9308e-05,1.293e-05,0.0,0 STARLINK-3883,1 52493U 22049AU  24026.01501629  .00001293  00000-0  99308-4 0  9996,2 52493  53.2174 282.2780 0001362  89.8829 270.2319 15.08830452 95758,6917.91,95.438,540.717,538.832,0.0
52493.0,STARLINK-3883,PAYLOAD,2024-01-27 00:12:24,15.08840953,0.0001285,53.2168,277.8204,85.4708,274.6431,0.00017237,2.457e-05,0.0,0 STARLINK-3883,1 52493U 22049AU  24027.00861388  .00002457  00000-0  17237-3 0  9990,2 52493  53.2168 277.8204 0001285  85.4708 274.6431 15.08840953 95901,6917.877,95.437,540.631,538.854,0.0
52493.0,STARLINK-3883,PAYLOAD,2024-01-27 22:27:48,15.0884129,0.0001588,53.2173,273.6553,69.2432,290.873,8.4711e-05,1.06e-05,0.0,0 STARLINK-3883,1 52493U 22049AU  24027.93597815  .00001060  00000-0  84711-4 0  9994,2 52493  53.2173 273.6553 0001588  69.2432 290.8730 15.08841290 95882,6917.876,95.437,540.84,538.643,0.0
52493.0,STARLINK-3883,PAYLOAD,2024-01-28 01:38:34,15.08843627,0.000172,53.2178,273.058,64.5576,295.5594,0.00010185,1.333e-05,0.0,0 STARLINK-3883,1 52493U 22049AU  24028.06845638  .00001333  00000-0  10185-3 0  9994,2 52493  53.2178 273.0580 0001720  64.5576 295.5594 15.08843627 96063,6917.869,95.437,540.924,538.544,0.0
52493.0,STARLINK-3883,PAYLOAD,2024-01-28 22:18:35,15.08845401,0.0001431,53.2187,269.1876,92.5886,267.527,-5.1323e-05,-1.105e-05,0.0,0 STARLINK-3883,1 52493U 22049AU  24028.92957845 -.00001105  00000-0 -51323-4 0  9992,2 52493  53.2187 269.1876 0001431  92.5886 267.5270 15.08845401 96030,6917.864,95.437,540.719,538.739,0.0
52493.0,STARLINK-3883,PAYLOAD,2024-01-29 01:29:21,15.08844051,0.0001404,53.2181,268.5948,103.0509,257.0639,-4.1641e-05,-9.51e-06,0.0,0 STARLINK-3883,1 52493U 22049AU  24029.06205775 -.00000951  00000-0 -41641-4 0  9996,2 52493  53.2181 268.5948 0001404 103.0509 257.0639 15.08844051 96210,6917.868,95.437,540.704,538.762,0.0
52493.0,STARLINK-3883,PAYLOAD,2024-01-30 01:20:08,15.08849038,0.0001351,53.2169,264.1368,88.9905,271.1242,5.5775e-05,6e-06,0.0,0 STARLINK-3883,1 52493U 22049AU  24030.05565038  .00000600  00000-0  55775-4 0  9990,2 52493  53.2169 264.1368 0001351  88.9905 271.1242 15.08849038 96369,6917.853,95.437,540.652,538.783,0.0
52493.0,STARLINK-3883,PAYLOAD,2024-01-30 18:49:23,15.08840677,0.0001283,53.2165,260.8688,84.4924,275.6214,2.0272e-05,3.5e-07,0.0,0 STARLINK-3883,1 52493U 22049AU  24030.78429644  .00000035  00000-0  20272-4 0  9998,2 52493  53.2165 260.8688 0001283  84.4924 275.6214 15.08840677 96479,6917.878,95.438,540.631,538.856,0.0
52493.0,STARLINK-3883,PAYLOAD,2024-01-30 22:00:09,15.08841303,0.0001376,53.2162,260.2733,85.2062,274.9088,3.6558e-05,2.94e-06,0.0,0 STARLINK-3883,1 52493U 22049AU  24030.91677502  .00000294  00000-0  36558-4 0  9992,2 52493  53.2162 260.2733 0001376  85.2062 274.9088 15.08841303 96339,6917.876,95.437,540.693,538.79,0.0
52493.0,STARLINK-3883,PAYLOAD,2024-01-31 15:29:24,15.08833242,0.0001495,53.216,257.0021,106.0891,254.0266,1.7196e-05,-1.4e-07,0.0,0 STARLINK-3883,1 52493U 22049AU  24031.64541971 -.00000014  00000-0  17196-4 0  9991,2 52493  53.2160 257.0021 0001495 106.0891 254.0266 15.08833242 96605,6917.901,95.438,540.8,538.732,0.0
